ONEWEB-0116             
1 48046U 21025E   24137.35184661 -.00000106  00000+0 -32589-3 0  9991
2 48046  87.8902 111.8464 0001918  91.2569 268.8780 13.13469742153642
ONEWEB-0150             
1 48047U 21025F   24136.94556203 -.00000103  00000+0 -31758-3 0  9995
2 48047  87.8895 111.9484 0001995  81.5936 278.5420 13.13471356153487
ONEWEB-0107             
1 48048U 21025G   24136.94715714 -.00000125  00000+0 -37705-3 0  9992
2 48048  87.8895 111.9459 0002108  77.4965 282.6400 13.13469177153463
ONEWEB-0101             
1 48049U 21025H   24137.44388218  .00003393  00000+0  92530-2 0  9998
2 48049  87.8900 111.8612 0002331  85.0193 275.1203 13.13466072153501
ONEWEB-0113             
1 48050U 21025J   24136.88843251 -.00000159  00000+0 -47003-3 0  9995
2 48050  87.8903 111.9541 0001946  90.0408 270.0944 13.13469948153516
ONEWEB-0112             
1 48051U 21025K   24136.95191376 -.00000268  00000+0 -76984-3 0  9999
2 48051  87.8895 111.9425 0001925  83.8117 276.3231 13.13471057153536
ONEWEB-0156             
1 48052U 21025L   24137.18996162 -.00000193  00000+0 -56247-3 0  9999
2 48052  87.8904 111.8914 0001939  84.4881 275.6470 13.13468733153556
ONEWEB-0161             
1 48053U 21025M   24137.16299085  .00000224  00000+0  57900-3 0  9998
2 48053  87.8903 111.9032 0002204  83.1632 276.9747 13.13470842153481
